[{"OBJECT_NAME":"STARLINK-5485","OBJECT_ID":"2023-094AV","EPOCH":"2026-03-09T22:00:01.999584","MEAN_MOTION":15.14639465,"ECCENTRICITY":0.00016836,"INCLINATION":43.001,"RA_OF_ASC_NODE":28.4084,"ARG_OF_PERICENTER":253.972,"MEAN_ANOMALY":53.3121,"EPHEMERIS_TYPE":0,"CLASSIFICATION_TYPE":"U","NORAD_CAT_ID":57261,"ELEMENT_SET_NO":999,"REV_AT_EPOCH":577,"BSTAR":0.0044032265,"MEAN_MOTION_DOT":0.000836,"MEAN_MOTION_DDOT":0},{"OBJECT_NAME":"OBJECT D","OBJECT_ID":"2026-027D","EPOCH":"2026-03-09T23:02:32.268480","MEAN_MOTION":15.18179588,"ECCENTRICITY":0.00102807,"INCLINATION":97.4905,"RA_OF_ASC_NODE":197.9873,"ARG_OF_PERICENTER":203.4991,"MEAN_ANOMALY":156.5775,"EPHEMERIS_TYPE":0,"CLASSIFICATION_TYPE":"U","NORAD_CAT_ID":67749,"ELEMENT_SET_NO":999,"REV_AT_EPOCH":385,"BSTAR":0.00056517767,"MEAN_MOTION_DOT":0.00011507,"MEAN_MOTION_DDOT":0}]
